IRIDIUM 39              
1 25042U 97069D   26008.31601504  .00000905  00000+0  23028-3 0  9991
2 25042  86.3933 123.2356 0016974 347.6317  12.4468 14.49555900478676
IRIDIUM 38              
1 25043U 97069E   26008.13583728  .00000529  00000+0  16746-3 0  9990
2 25043  86.3992 147.0098 0003531 119.7426 240.4124 14.38346739475410
IRIDIUM 42              
1 25077U 97077A   26008.32506257  .00000525  00000+0  17214-3 0  9996
2 25077  86.3997 153.3517 0002339 111.7881 248.3565 14.36561921470646
IRIDIUM 44              
1 25078U 97077B   26008.28108862  .00000495  00000+0  14946-3 0  9997
2 25078  86.3987 134.7568 0003838  84.2894 275.8743 14.40460019473229
IRIDIUM 45              
1 25104U 97082A   26008.32180988  .00031207  00000+0  84737-3 0  9997
2 25104  86.3556 307.5610 0090925 278.2436  80.8510 15.33265935483342
IRIDIUM 24              
1 25105U 97082B   26008.19567897  .00000537  00000+0  15642-3 0  9992
2 25105  86.3917 353.3244 0013261 115.5176 244.7397 14.42360591472769
IRIDIUM 51              
1 25262U 98018A   26008.30922240  .00156660  00000+0  12759-2 0  9990
2 25262  86.3725 312.5407 0047331 161.0316 199.2731 15.68670617478804
IRIDIUM 57              
1 25273U 98019B   26008.18045914  .00000337  00000+0  10917-3 0  9997
2 25273  86.3931  59.2964 0002317  94.6289 265.5172 14.36074353454206
